[{"OBJECT_NAME":"ATLAS CENTAUR 2","OBJECT_ID":"1963-047A","EPOCH":"2026-04-11T03:15:04.052448","MEAN_MOTION":14.12226632,"ECCENTRICITY":0.05467597,"INCLINATION":30.3558,"RA_OF_ASC_NODE":14.3,"ARG_OF_PERICENTER":6.2609,"MEAN_ANOMALY":354.45,"EPHEMERIS_TYPE":0,"CLASSIFICATION_TYPE":"U","NORAD_CAT_ID":694,"ELEMENT_SET_NO":999,"REV_AT_EPOCH":13621,"BSTAR":0.00028654914,"MEAN_MOTION_DOT":2.427e-5,"MEAN_MOTION_DDOT":0},{"OBJECT_NAME":"THOR AGENA D R/B","OBJECT_ID":"1964-002A","EPOCH":"2026-04-11T07:34:21.957024","MEAN_MOTION":14.34037929,"ECCENTRICITY":0.0033268,"INCLINATION":99.1203,"RA_OF_ASC_NODE":116.4297,"ARG_OF_PERICENTER":161.8608,"MEAN_ANOMALY":198.3769,"EPHEMERIS_TYPE":0,"CLASSIFICATION_TYPE":"U","NORAD_CAT_ID":733,"ELEMENT_SET_NO":999,"REV_AT_EPOCH":24297,"BSTAR":6.9870001e-5,"MEAN_MOTION_DOT":1.48e-6,"MEAN_MOTION_DDOT":0},{"OBJECT_NAME":"SL-3 R/B","OBJECT_ID":"1964-053B","EPOCH":"2026-04-11T01:27:49.664736","MEAN_MOTION":14.6139268,"ECCENTRICITY":0.00808003,"INCLINATION":65.0766,"RA_OF_ASC_NODE":236.3258,"ARG_OF_PERICENTER":282.059,"MEAN_ANOMALY":77.1464,"EPHEMERIS_TYPE":0,"CLASSIFICATION_TYPE":"U","NORAD_CAT_ID":877,"ELEMENT_SET_NO":999,"REV_AT_EPOCH":27152,"BSTAR":6.2305785e-5,"MEAN_MOTION_DOT":1.97e-6,"MEAN_MOTION_DDOT":0},{"OBJECT_NAME":"SL-8 R/B","OBJECT_ID":"1967-045B","EPOCH":"2026-04-11T05:42:54.035424","MEAN_MOTION":14.45647947,"ECCENTRICITY":0.00651524,"INCLINATION":74.0098,"RA_OF_ASC_NODE":287.3004,"ARG_OF_PERICENTER":286.5367,"MEAN_ANOMALY":72.864,"EPHEMERIS_TYPE":0,"CLASSIFICATION_TYPE":"U","NORAD_CAT_ID":2802,"ELEMENT_SET_NO":999,"REV_AT_EPOCH":9372,"BSTAR":7.6041635e-5,"MEAN_MOTION_DOT":2.47e-6,"MEAN_MOTION_DDOT":0},{"OBJECT_NAME":"SL-8 R/B","OBJECT_ID":"1968-040B","EPOCH":"2026-04-11T02:49:03.184608","MEAN_MOTION":15.03497642,"ECCENTRICITY":0.00234168,"INCLINATION":74.0299,"RA_OF_ASC_NODE":247.4165,"ARG_OF_PERICENTER":57.6601,"MEAN_ANOMALY":302.685,"EPHEMERIS_TYPE":0,"CLASSIFICATION_TYPE":"U","NORAD_CAT_ID":3230,"ELEMENT_SET_NO":999,"REV_AT_EPOCH":9488,"BSTAR":0.00020069874,"MEAN_MOTION_DOT":2.71e-5,"MEAN_MOTION_DDOT":0},{"OBJECT_NAME":"OAO 2","OBJECT_ID":"1968-110A","EPOCH":"2026-04-11T06:37:28.222176","MEAN_MOTION":14.47326416,"ECCENTRICITY":0.00049849,"INCLINATION":34.9929,"RA_OF_ASC_NODE":83.2783,"ARG_OF_PERICENTER":100.8717,"MEAN_ANOMALY":259.2535,"EPHEMERIS_TYPE":0,"CLASSIFICATION_TYPE":"U","NORAD_CAT_ID":3597,"ELEMENT_SET_NO":999,"REV_AT_EPOCH":2382,"BSTAR":4.706735e-5,"MEAN_MOTION_DOT":1.56e-6,"MEAN_MOTION_DDOT":0},{"OBJECT_NAME":"ISIS 1","OBJECT_ID":"1969-009A","EPOCH":"2026-04-11T02:38:51.030240","MEAN_MOTION":11.30422446,"ECCENTRICITY":0.17075652,"INCLINATION":88.4479,"RA_OF_ASC_NODE":151.7668,"ARG_OF_PERICENTER":23.7554,"MEAN_ANOMALY":343.3636,"EPHEMERIS_TYPE":0,"CLASSIFICATION_TYPE":"U","NORAD_CAT_ID":3669,"ELEMENT_SET_NO":999,"REV_AT_EPOCH":35219,"BSTAR":5.3149606e-5,"MEAN_MOTION_DOT":8.8e-7,"MEAN_MOTION_DDOT":0},{"OBJECT_NAME":"SERT 2","OBJECT_ID":"1970-009A","EPOCH":"2026-04-11T06:23:26.929824","MEAN_MOTION":13.58733933,"ECCENTRICITY":0.00057866,"INCLINATION":99.2799,"RA_OF_ASC_NODE":42.585,"ARG_OF_PERICENTER":82.4357,"MEAN_ANOMALY":78.6042,"EPHEMERIS_TYPE":0,"CLASSIFICATION_TYPE":"U","NORAD_CAT_ID":4327,"ELEMENT_SET_NO":999,"REV_AT_EPOCH":78431,"BSTAR":0.00010985942,"MEAN_MOTION_DOT":3.9e-7,"MEAN_MOTION_DDOT":0},{"OBJECT_NAME":"SL-3 R/B","OBJECT_ID":"1971-028B","EPOCH":"2026-04-11T06:00:58.171392","MEAN_MOTION":15.64194637,"ECCENTRICITY":0.00160625,"INCLINATION":81.2377,"RA_OF_ASC_NODE":11.7295,"ARG_OF_PERICENTER":158.3563,"MEAN_ANOMALY":201.8375,"EPHEMERIS_TYPE":0,"CLASSIFICATION_TYPE":"U","NORAD_CAT_ID":5118,"ELEMENT_SET_NO":999,"REV_AT_EPOCH":99375,"BSTAR":0.00035591398,"MEAN_MOTION_DOT":0.00034141,"MEAN_MOTION_DDOT":0},{"OBJECT_NAME":"ASTEX 1","OBJECT_ID":"1971-089A","EPOCH":"2026-04-11T04:05:28.317696","MEAN_MOTION":14.50803772,"ECCENTRICITY":0.00146121,"INCLINATION":92.707,"RA_OF_ASC_NODE":162.2539,"ARG_OF_PERICENTER":343.2213,"MEAN_ANOMALY":16.8508,"EPHEMERIS_TYPE":0,"CLASSIFICATION_TYPE":"U","NORAD_CAT_ID":5560,"ELEMENT_SET_NO":999,"REV_AT_EPOCH":86701,"BSTAR":7.0784755e-5,"MEAN_MOTION_DOT":2.78e-6,"MEAN_MOTION_DDOT":0},{"OBJECT_NAME":"SL-8 R/B","OBJECT_ID":"1971-119B","EPOCH":"2026-04-11T06:45:27.803520","MEAN_MOTION":14.38452171,"ECCENTRICITY":0.0545658,"INCLINATION":73.8842,"RA_OF_ASC_NODE":114.7694,"ARG_OF_PERICENTER":74.4951,"MEAN_ANOMALY":291.5749,"EPHEMERIS_TYPE":0,"CLASSIFICATION_TYPE":"U","NORAD_CAT_ID":5730,"ELEMENT_SET_NO":999,"REV_AT_EPOCH":66017,"BSTAR":0.00034179975,"MEAN_MOTION_DOT":6.533e-5,"MEAN_MOTION_DDOT":0},{"OBJECT_NAME":"OAO 3 (COPERNICUS)","OBJECT_ID":"1972-065A","EPOCH":"2026-04-11T03:37:23.838240","MEAN_MOTION":14.60024231,"ECCENTRICITY":0.00060709,"INCLINATION":35.0045,"RA_OF_ASC_NODE":112.3632,"ARG_OF_PERICENTER":64.4015,"MEAN_ANOMALY":356.2013,"EPHEMERIS_TYPE":0,"CLASSIFICATION_TYPE":"U","NORAD_CAT_ID":6153,"ELEMENT_SET_NO":999,"REV_AT_EPOCH":85094,"BSTAR":5.1958231e-5,"MEAN_MOTION_DOT":2.32e-6,"MEAN_MOTION_DDOT":0},{"OBJECT_NAME":"ATLAS CENTAUR R/B","OBJECT_ID":"1972-065B","EPOCH":"2026-04-11T02:58:53.326848","MEAN_MOTION":14.77783074,"ECCENTRICITY":0.00341464,"INCLINATION":35.0006,"RA_OF_ASC_NODE":115.6578,"ARG_OF_PERICENTER":282.9357,"MEAN_ANOMALY":76.7531,"EPHEMERIS_TYPE":0,"CLASSIFICATION_TYPE":"U","NORAD_CAT_ID":6155,"ELEMENT_SET_NO":999,"REV_AT_EPOCH":84606,"BSTAR":0.00014531254,"MEAN_MOTION_DOT":1.047e-5,"MEAN_MOTION_DDOT":0},{"OBJECT_NAME":"SL-8 R/B","OBJECT_ID":"1975-112B","EPOCH":"2026-04-11T01:21:29.738880","MEAN_MOTION":14.38222634,"ECCENTRICITY":0.00149038,"INCLINATION":74.0609,"RA_OF_ASC_NODE":319.3747,"ARG_OF_PERICENTER":39.7634,"MEAN_ANOMALY":320.461,"EPHEMERIS_TYPE":0,"CLASSIFICATION_TYPE":"U","NORAD_CAT_ID":8459,"ELEMENT_SET_NO":999,"REV_AT_EPOCH":63652,"BSTAR":6.3276482e-5,"MEAN_MOTION_DOT":1.66e-6,"MEAN_MOTION_DDOT":0},{"OBJECT_NAME":"SL-3 R/B","OBJECT_ID":"1977-057B","EPOCH":"2026-04-11T05:04:47.322048","MEAN_MOTION":15.46456723,"ECCENTRICITY":0.00076538,"INCLINATION":97.5813,"RA_OF_ASC_NODE":274.5952,"ARG_OF_PERICENTER":157.7516,"MEAN_ANOMALY":202.4067,"EPHEMERIS_TYPE":0,"CLASSIFICATION_TYPE":"U","NORAD_CAT_ID":10114,"ELEMENT_SET_NO":999,"REV_AT_EPOCH":67335,"BSTAR":0.00020936063,"MEAN_MOTION_DOT":0.00010289,"MEAN_MOTION_DDOT":0},{"OBJECT_NAME":"SEASAT 1","OBJECT_ID":"1978-064A","EPOCH":"2026-04-11T01:49:19.189920","MEAN_MOTION":14.46189685,"ECCENTRICITY":0.00027829,"INCLINATION":108.0068,"RA_OF_ASC_NODE":193.4506,"ARG_OF_PERICENTER":269.3022,"MEAN_ANOMALY":90.7805,"EPHEMERIS_TYPE":0,"CLASSIFICATION_TYPE":"U","NORAD_CAT_ID":10967,"ELEMENT_SET_NO":999,"REV_AT_EPOCH":51119,"BSTAR":9.8520901e-5,"MEAN_MOTION_DOT":2.15e-6,"MEAN_MOTION_DDOT":0},{"OBJECT_NAME":"SL-14 R/B","OBJECT_ID":"1979-011B","EPOCH":"2026-04-11T04:13:23.101248","MEAN_MOTION":14.91954423,"ECCENTRICITY":0.00147863,"INCLINATION":82.5229,"RA_OF_ASC_NODE":65.7359,"ARG_OF_PERICENTER":313.2404,"MEAN_ANOMALY":46.758,"EPHEMERIS_TYPE":0,"CLASSIFICATION_TYPE":"U","NORAD_CAT_ID":11267,"ELEMENT_SET_NO":999,"REV_AT_EPOCH":53362,"BSTAR":4.9895896e-5,"MEAN_MOTION_DOT":5.31e-6,"MEAN_MOTION_DDOT":0}]
