ATLAS CENTAUR 2         
1 00694U 63047A   26101.13546357  .00002427  00000+0  28655-3 0  9996
2 00694  30.3558  14.3000 0546759   6.2609 354.4500 14.12226632136215
THOR AGENA D R/B        
1 00733U 64002A   26101.31553191  .00000148  00000+0  69870-4 0  9999
2 00733  99.1203 116.4297 0033268 161.8608 198.3769 14.34037929242970
SL-3 R/B                
1 00877U 64053B   26101.06099149  .00000197  00000+0  62306-4 0  9995
2 00877  65.0766 236.3258 0080800 282.0590  77.1464 14.61392680271521
SL-8 R/B                
1 02802U 67045B   26101.23812541  .00000247  00000+0  76042-4 0  9995
2 02802  74.0098 287.3004 0065152 286.5367  72.8640 14.45647947 93721
SL-8 R/B                
1 03230U 68040B   26101.11739797  .00002710  00000+0  20070-3 0  9991
2 03230  74.0299 247.4165 0023416  57.6601 302.6850 15.03497642 94885
OAO 2                   
1 03597U 68110A   26101.27602109  .00000156  00000+0  47067-4 0  9996
2 03597  34.9929  83.2783 0004984 100.8717 259.2535 14.47326416 23826
ISIS 1                  
1 03669U 69009A   26101.11031285  .00000088  00000+0  53150-4 0  9992
2 03669  88.4479 151.7668 1707565  23.7554 343.3636 11.30422446352192
SERT 2                  
1 04327U 70009A   26101.26628391  .00000039  00000+0  10986-3 0  9997
2 04327  99.2799  42.5850 0005786  82.4357  78.6042 13.58733933784317
SL-3 R/B                
1 05118U 71028B   26101.25067328  .00034141  00000+0  35591-3 0  9994
2 05118  81.2377  11.7295 0016062 158.3563 201.8375 15.64194637993751
ASTEX 1                 
1 05560U 71089A   26101.17046664  .00000278  00000+0  70785-4 0  9992
2 05560  92.7070 162.2539 0014612 343.2213  16.8508 14.50803772867010
SL-8 R/B                
1 05730U 71119B   26101.28157180  .00006533  00000+0  34180-3 0  9991
2 05730  73.8842 114.7694 0545658  74.4951 291.5749 14.38452171660177
OAO 3 (COPERNICUS)      
1 06153U 72065A   26101.15097035  .00000232  00000+0  51958-4 0  9993
2 06153  35.0045 112.3632 0006070  64.4015 356.2013 14.60024231850944
ATLAS CENTAUR R/B       
1 06155U 72065B   26101.12422832  .00001047  00000+0  14531-3 0  9999
2 06155  35.0006 115.6578 0034146 282.9357  76.7531 14.77783074846061
SL-8 R/B                
1 08459U 75112B   26101.05659420  .00000166  00000+0  63276-4 0  9993
2 08459  74.0609 319.3747 0014903  39.7634 320.4610 14.38222634636520
SL-3 R/B                
1 10114U 77057B   26101.21165882  .00010289  00000+0  20936-3 0  9998
2 10114  97.5813 274.5952 0007653 157.7516 202.4067 15.46456723673357
SEASAT 1                
1 10967U 78064A   26101.07591655  .00000215  00000+0  98521-4 0  9992
2 10967 108.0068 193.4506 0002782 269.3022  90.7805 14.46189685511197
SL-14 R/B               
1 11267U 79011B   26101.17596182  .00000531  00000+0  49896-4 0  9992
2 11267  82.5229  65.7359 0014786 313.2404  46.7580 14.91954423533626
